[Satellite]
VERSION=1.1
NAME=ISIS 1
NICKNAME=ISIS 1
TLE1=1 03669U 69009A   15053.16710663  .00000135  00000-0  99294-4 0  9998
TLE2=2 03669  88.4228 241.3722 1711634 301.4529  43.0186 11.29295906893462
